[{"OBJECT_NAME":"STARLINK-37005","OBJECT_ID":"2026-044G","EPOCH":"2026-03-27T04:21:07.575552","MEAN_MOTION":15.75226207,"ECCENTRICITY":0.00015258,"INCLINATION":97.2836,"RA_OF_ASC_NODE":47.1848,"ARG_OF_PERICENTER":128.3636,"MEAN_ANOMALY":231.7767,"EPHEMERIS_TYPE":0,"CLASSIFICATION_TYPE":"U","NORAD_CAT_ID":68107,"ELEMENT_SET_NO":999,"REV_AT_EPOCH":423,"BSTAR":0.00073324472,"MEAN_MOTION_DOT":0.00110843,"MEAN_MOTION_DDOT":0},{"OBJECT_NAME":"STARLINK-37017","OBJECT_ID":"2026-044H","EPOCH":"2026-03-27T04:16:32.916000","MEAN_MOTION":15.75206078,"ECCENTRICITY":0.00017028,"INCLINATION":97.2834,"RA_OF_ASC_NODE":47.1893,"ARG_OF_PERICENTER":132.6011,"MEAN_ANOMALY":227.5398,"EPHEMERIS_TYPE":0,"CLASSIFICATION_TYPE":"U","NORAD_CAT_ID":68108,"ELEMENT_SET_NO":999,"REV_AT_EPOCH":423,"BSTAR":0.00016785142,"MEAN_MOTION_DOT":0.00024998,"MEAN_MOTION_DDOT":0},{"OBJECT_NAME":"STARLINK-36833","OBJECT_ID":"2026-044J","EPOCH":"2026-03-27T04:14:30.855264","MEAN_MOTION":15.75160106,"ECCENTRICITY":0.00015756,"INCLINATION":97.2835,"RA_OF_ASC_NODE":47.1906,"ARG_OF_PERICENTER":106.1619,"MEAN_ANOMALY":253.982,"EPHEMERIS_TYPE":0,"CLASSIFICATION_TYPE":"U","NORAD_CAT_ID":68109,"ELEMENT_SET_NO":999,"REV_AT_EPOCH":423,"BSTAR":0.00046911784,"MEAN_MOTION_DOT":0.0007033,"MEAN_MOTION_DDOT":0},{"OBJECT_NAME":"STARLINK-36830","OBJECT_ID":"2026-044K","EPOCH":"2026-03-27T04:15:32.130144","MEAN_MOTION":15.75208302,"ECCENTRICITY":0.00015594,"INCLINATION":97.2836,"RA_OF_ASC_NODE":47.1901,"ARG_OF_PERICENTER":122.7187,"MEAN_ANOMALY":237.4229,"EPHEMERIS_TYPE":0,"CLASSIFICATION_TYPE":"U","NORAD_CAT_ID":68110,"ELEMENT_SET_NO":999,"REV_AT_EPOCH":423,"BSTAR":0.00066915248,"MEAN_MOTION_DOT":0.00100947,"MEAN_MOTION_DDOT":0},{"OBJECT_NAME":"STARLINK-36791","OBJECT_ID":"2026-044L","EPOCH":"2026-03-27T04:12:29.208384","MEAN_MOTION":15.75224528,"ECCENTRICITY":0.00013047,"INCLINATION":97.2838,"RA_OF_ASC_NODE":47.1931,"ARG_OF_PERICENTER":115.8545,"MEAN_ANOMALY":244.2855,"EPHEMERIS_TYPE":0,"CLASSIFICATION_TYPE":"U","NORAD_CAT_ID":68111,"ELEMENT_SET_NO":999,"REV_AT_EPOCH":423,"BSTAR":0.00073561541,"MEAN_MOTION_DOT":0.00111197,"MEAN_MOTION_DDOT":0},{"OBJECT_NAME":"STARLINK-36893","OBJECT_ID":"2026-044M","EPOCH":"2026-03-27T04:10:57.850752","MEAN_MOTION":15.75242317,"ECCENTRICITY":0.00014148,"INCLINATION":97.2838,"RA_OF_ASC_NODE":47.1931,"ARG_OF_PERICENTER":108.7647,"MEAN_ANOMALY":251.3772,"EPHEMERIS_TYPE":0,"CLASSIFICATION_TYPE":"U","NORAD_CAT_ID":68112,"ELEMENT_SET_NO":999,"REV_AT_EPOCH":423,"BSTAR":0.0010628548,"MEAN_MOTION_DOT":0.00161806,"MEAN_MOTION_DDOT":0},{"OBJECT_NAME":"STARLINK-36937","OBJECT_ID":"2026-044N","EPOCH":"2026-03-27T04:09:26.532000","MEAN_MOTION":15.75216089,"ECCENTRICITY":0.00019865,"INCLINATION":97.2834,"RA_OF_ASC_NODE":47.195,"ARG_OF_PERICENTER":66.4921,"MEAN_ANOMALY":293.6553,"EPHEMERIS_TYPE":0,"CLASSIFICATION_TYPE":"U","NORAD_CAT_ID":68113,"ELEMENT_SET_NO":999,"REV_AT_EPOCH":423,"BSTAR":0.00084104181,"MEAN_MOTION_DOT":0.00127352,"MEAN_MOTION_DDOT":0},{"OBJECT_NAME":"STARLINK-36229","OBJECT_ID":"2026-044P","EPOCH":"2026-03-27T04:09:56.741760","MEAN_MOTION":15.7522198,"ECCENTRICITY":0.00014335,"INCLINATION":97.284,"RA_OF_ASC_NODE":47.1933,"ARG_OF_PERICENTER":145.2366,"MEAN_ANOMALY":214.8993,"EPHEMERIS_TYPE":0,"CLASSIFICATION_TYPE":"U","NORAD_CAT_ID":68114,"ELEMENT_SET_NO":999,"REV_AT_EPOCH":423,"BSTAR":0.00060582624,"MEAN_MOTION_DOT":0.00091331,"MEAN_MOTION_DDOT":0},{"OBJECT_NAME":"STARLINK-36392","OBJECT_ID":"2026-044Q","EPOCH":"2026-03-27T04:07:54.792480","MEAN_MOTION":15.75226313,"ECCENTRICITY":0.00016455,"INCLINATION":97.2838,"RA_OF_ASC_NODE":47.1956,"ARG_OF_PERICENTER":132.5675,"MEAN_ANOMALY":227.5729,"EPHEMERIS_TYPE":0,"CLASSIFICATION_TYPE":"U","NORAD_CAT_ID":68115,"ELEMENT_SET_NO":999,"REV_AT_EPOCH":423,"BSTAR":0.00074926718,"MEAN_MOTION_DOT":0.00113302,"MEAN_MOTION_DDOT":0},{"OBJECT_NAME":"STARLINK-36805","OBJECT_ID":"2026-044R","EPOCH":"2026-03-27T04:07:24.403008","MEAN_MOTION":15.75210365,"ECCENTRICITY":0.00016905,"INCLINATION":97.2836,"RA_OF_ASC_NODE":47.197,"ARG_OF_PERICENTER":131.0863,"MEAN_ANOMALY":229.0549,"EPHEMERIS_TYPE":0,"CLASSIFICATION_TYPE":"U","NORAD_CAT_ID":68116,"ELEMENT_SET_NO":999,"REV_AT_EPOCH":423,"BSTAR":0.00050714381,"MEAN_MOTION_DOT":0.00076261,"MEAN_MOTION_DDOT":0},{"OBJECT_NAME":"STARLINK-36844","OBJECT_ID":"2026-044S","EPOCH":"2026-03-27T04:05:22.284384","MEAN_MOTION":15.75245318,"ECCENTRICITY":0.00012586,"INCLINATION":97.2838,"RA_OF_ASC_NODE":47.1982,"ARG_OF_PERICENTER":120.3255,"MEAN_ANOMALY":239.8135,"EPHEMERIS_TYPE":0,"CLASSIFICATION_TYPE":"U","NORAD_CAT_ID":68117,"ELEMENT_SET_NO":999,"REV_AT_EPOCH":423,"BSTAR":0.00092225928,"MEAN_MOTION_DOT":0.00140043,"MEAN_MOTION_DDOT":0},{"OBJECT_NAME":"STARLINK-36789","OBJECT_ID":"2026-044T","EPOCH":"2026-03-27T04:04:52.023648","MEAN_MOTION":15.75210448,"ECCENTRICITY":0.00014333,"INCLINATION":97.2839,"RA_OF_ASC_NODE":47.1984,"ARG_OF_PERICENTER":122.6083,"MEAN_ANOMALY":237.5321,"EPHEMERIS_TYPE":0,"CLASSIFICATION_TYPE":"U","NORAD_CAT_ID":68118,"ELEMENT_SET_NO":999,"REV_AT_EPOCH":423,"BSTAR":0.00063606104,"MEAN_MOTION_DOT":0.000959,"MEAN_MOTION_DDOT":0},{"OBJECT_NAME":"STARLINK-36850","OBJECT_ID":"2026-044U","EPOCH":"2026-03-27T05:35:50.150112","MEAN_MOTION":15.7525916,"ECCENTRICITY":0.00015662,"INCLINATION":97.2836,"RA_OF_ASC_NODE":47.2657,"ARG_OF_PERICENTER":114.9476,"MEAN_ANOMALY":245.1952,"EPHEMERIS_TYPE":0,"CLASSIFICATION_TYPE":"U","NORAD_CAT_ID":68119,"ELEMENT_SET_NO":999,"REV_AT_EPOCH":424,"BSTAR":0.001466565,"MEAN_MOTION_DOT":0.00225156,"MEAN_MOTION_DDOT":0},{"OBJECT_NAME":"STARLINK-36868","OBJECT_ID":"2026-044V","EPOCH":"2026-03-27T04:02:19.686624","MEAN_MOTION":15.75209969,"ECCENTRICITY":0.00017808,"INCLINATION":97.2838,"RA_OF_ASC_NODE":47.2009,"ARG_OF_PERICENTER":126.6503,"MEAN_ANOMALY":233.4927,"EPHEMERIS_TYPE":0,"CLASSIFICATION_TYPE":"U","NORAD_CAT_ID":68120,"ELEMENT_SET_NO":999,"REV_AT_EPOCH":423,"BSTAR":0.00056302683,"MEAN_MOTION_DOT":0.00084763,"MEAN_MOTION_DDOT":0},{"OBJECT_NAME":"STARLINK-36855","OBJECT_ID":"2026-044W","EPOCH":"2026-03-27T02:29:49.552800","MEAN_MOTION":15.75260539,"ECCENTRICITY":0.0001277,"INCLINATION":97.2838,"RA_OF_ASC_NODE":47.1353,"ARG_OF_PERICENTER":125.9021,"MEAN_ANOMALY":234.2363,"EPHEMERIS_TYPE":0,"CLASSIFICATION_TYPE":"U","NORAD_CAT_ID":68121,"ELEMENT_SET_NO":999,"REV_AT_EPOCH":422,"BSTAR":0.0011430192,"MEAN_MOTION_DOT":0.00174416,"MEAN_MOTION_DDOT":0},{"OBJECT_NAME":"STARLINK-36366","OBJECT_ID":"2026-044X","EPOCH":"2026-03-27T04:00:48.086208","MEAN_MOTION":15.7522572,"ECCENTRICITY":0.00019156,"INCLINATION":97.2838,"RA_OF_ASC_NODE":47.2028,"ARG_OF_PERICENTER":111.9949,"MEAN_ANOMALY":248.152,"EPHEMERIS_TYPE":0,"CLASSIFICATION_TYPE":"U","NORAD_CAT_ID":68122,"ELEMENT_SET_NO":999,"REV_AT_EPOCH":423,"BSTAR":0.00071115065,"MEAN_MOTION_DOT":0.00107457,"MEAN_MOTION_DDOT":0}]
